KUIPER-00136            
1 65962U 25228R   25336.55552566  .00042290  00000+0  11932-2 0  9999
2 65962  51.8793  69.5498 0005889 324.2187  35.8403 15.35963036  8856
KUIPER-00137            
1 65963U 25228S   25336.57023974  .00033464  00000+0  96814-3 0  9994
2 65963  51.8800  69.6482 0006125 343.3778  16.7007 15.35287039  8852
KUIPER-00138            
1 65964U 25228T   25336.57406468  .00054757  00000+0  15708-2 0  9998
2 65964  51.8803  69.6651 0007635 343.3923  16.6812 15.35315563  8850
KUIPER-00140            
1 65965U 25228U   25336.51405178  .00044283  00000+0  12949-2 0  9997
2 65965  51.8809  70.0153 0007429 340.2685  19.8012 15.34810812  8844
KUIPER-00141            
1 65966U 25228V   25336.55931578  .00044012  00000+0  12434-2 0  9999
2 65966  51.8790  69.5665 0006170 330.6819  29.3820 15.35902975  8856
KUIPER-00146            
1 65967U 25228W   25336.56684653  .00041705  00000+0  11986-2 0  9997
2 65967  51.8806  69.6259 0006570 334.0794  25.9862 15.35387244  8853
KUIPER-00149            
1 65968U 25228X   25336.55523994  .00013964  00000+0  40277-3 0  9999
2 65968  51.8795  69.5422 0005549 325.4866  34.5759 15.35962169  8857
KUIPER-00154            
1 65969U 25228Y   25336.49330627  .00039546  00000+0  11316-2 0  9997
2 65969  51.8789  69.8756 0005972 323.7517  36.3063 15.35552580  8847
